[{"OBJECT_NAME":"LKW-3","OBJECT_ID":"2018-006A","EPOCH":"2026-03-09T23:35:48.740928","MEAN_MOTION":15.33087407,"ECCENTRICITY":0.00022503,"INCLINATION":97.6481,"RA_OF_ASC_NODE":225.9034,"ARG_OF_PERICENTER":308.148,"MEAN_ANOMALY":51.9559,"EPHEMERIS_TYPE":0,"CLASSIFICATION_TYPE":"U","NORAD_CAT_ID":43146,"ELEMENT_SET_NO":999,"REV_AT_EPOCH":45350,"BSTAR":0.00042518021,"MEAN_MOTION_DOT":0.00013518,"MEAN_MOTION_DDOT":0},{"OBJECT_NAME":"STARLINK-33618","OBJECT_ID":"2025-063M","EPOCH":"2026-03-09T22:21:53.761536","MEAN_MOTION":15.30222717,"ECCENTRICITY":0.00016959,"INCLINATION":53.1607,"RA_OF_ASC_NODE":48.6989,"ARG_OF_PERICENTER":89.6814,"MEAN_ANOMALY":270.4381,"EPHEMERIS_TYPE":0,"CLASSIFICATION_TYPE":"U","NORAD_CAT_ID":63374,"ELEMENT_SET_NO":999,"REV_AT_EPOCH":5483,"BSTAR":0.0013630213,"MEAN_MOTION_DOT":0.00040257,"MEAN_MOTION_DDOT":0}]
